{"type": "FeatureCollection", "features": [ {"type": "Feature", "properties": {"norad_id": 66409, "name": "CHUTIAN-2 A", "group": "last-30-days", "lat": -1.3136653518841643, "lon": 45.91606058189473, "alt_km": 738.1125782891695, "timestamp": "2025-12-06T20:37:54.811826+00:00", "meta": {"OBJECT_NAME": "CHUTIAN-2 A", "OBJECT_ID": "2025-256A", "EPOCH": "2025-12-06T14:00:47.187072", "MEAN_MOTION": 14.49929258, "ECCENTRICITY": 0.0013376, "INCLINATION": 98.2779, "RA_OF_ASC_NODE": 45.4539, "ARG_OF_PERICENTER": 196.4545, "MEAN_ANOMALY": 163.6217, "EPHEMERIS_TYPE": 0, "CLASSIFICATION_TYPE": "U", "NORAD_CAT_ID": 66409, "ELEMENT_SET_NO": 999, "REV_AT_EPOCH": 398, "BSTAR": 0.00036107111, "MEAN_MOTION_DOT": 1.354e-05, "MEAN_MOTION_DDOT": 0}, "tle": {"line1": "1 66409U 25256A   25340.58387948  .00001354  00000+0  36107-3 0  9993", "line2": "2 66409  98.2779  45.4539 0013376 196.4545 163.6217 14.49929258  3982"}}, "geometry": {"type": "Point", "coordinates": [45.91606058189473, -1.3136653518841643]}}, {"type": "Feature", "properties": {"norad_id": 66410, "name": "CHUTIAN-2 B", "group": "last-30-days", "lat": 70.87189622939556, "lon": 20.937940619857113, "alt_km": 721.162294138152, "timestamp": "2025-12-06T20:37:54.811836+00:00", "meta": {"OBJECT_NAME": "CHUTIAN-2 B", "OBJECT_ID": "2025-256B", "EPOCH": "2025-12-06T13:40:38.362944", "MEAN_MOTION": 14.51013913, "ECCENTRICITY": 0.00134521, "INCLINATION": 98.2803, "RA_OF_ASC_NODE": 45.48, "ARG_OF_PERICENTER": 200.2195, "MEAN_ANOMALY": 159.8468, "EPHEMERIS_TYPE": 0, "CLASSIFICATION_TYPE": "U", "NORAD_CAT_ID": 66410, "ELEMENT_SET_NO": 999, "REV_AT_EPOCH": 398, "BSTAR": 0.00034454829, "MEAN_MOTION_DOT": 1.32e-05, "MEAN_MOTION_DDOT": 0}, "tle": {"line1": "1 66410U 25256B   25340.56988846  .00001320  00000+0  34455-3 0  9994", "line2": "2 66410  98.2803  45.4800 0013452 200.2195 159.8468 14.51013913  3983"}}, "geometry": {"type": "Point", "coordinates": [20.937940619857113, 70.87189622939556]}}, {"type": "Feature", "properties": {"norad_id": 66411, "name": "ZK-1A R/B", "group": "last-30-days", "lat": 44.33862518506853, "lon": 39.99027861217429, "alt_km": 678.6236058609175, "timestamp": "2025-12-06T20:37:54.811847+00:00", "meta": {"OBJECT_NAME": "ZK-1A R/B", "OBJECT_ID": "2025-256C", "EPOCH": "2025-12-06T12:25:58.282752", "MEAN_MOTION": 15.01758996, "ECCENTRICITY": 0.02289872, "INCLINATION": 98.3235, "RA_OF_ASC_NODE": 47.8488, "ARG_OF_PERICENTER": 265.7551, "MEAN_ANOMALY": 91.7476, "EPHEMERIS_TYPE": 0, "CLASSIFICATION_TYPE": "U", "NORAD_CAT_ID": 66411, "ELEMENT_SET_NO": 999, "REV_AT_EPOCH": 411, "BSTAR": 0.00093350899, "MEAN_MOTION_DOT": 0.0002149, "MEAN_MOTION_DDOT": 0}, "tle": {"line1": "1 66411U 25256C   25340.51803568  .00021490  00000+0  93351-3 0  9997", "line2": "2 66411  98.3235  47.8488 0228987 265.7551  91.7476 15.01758996  4117"}}, "geometry": {"type": "Point", "coordinates": [39.99027861217429, 44.33862518506853]}}, {"type": "Feature", "properties": {"norad_id": 66412, "name": "HULIANWANG DIGUI 13A", "group": "last-30-days", "lat": -42.31672871909292, "lon": 156.58296891580395, "alt_km": 822.0559858602237, "timestamp": "2025-12-06T20:37:54.811858+00:00", "meta": {"OBJECT_NAME": "HULIANWANG DIGUI 13A", "OBJECT_ID": "2025-258A", "EPOCH": "2025-12-05T21:34:54.424128", "MEAN_MOTION": 14.22483467, "ECCENTRICITY": 0.0013174, "INCLINATION": 50.0056, "RA_OF_ASC_NODE": 290.773, "ARG_OF_PERICENTER": 333.7456, "MEAN_ANOMALY": 26.2788, "EPHEMERIS_TYPE": 0, "CLASSIFICATION_TYPE": "U", "NORAD_CAT_ID": 66412, "ELEMENT_SET_NO": 999, "REV_AT_EPOCH": 368, "BSTAR": 0.00033228063, "MEAN_MOTION_DOT": 5.88e-06, "MEAN_MOTION_DDOT": 0}, "tle": {"line1": "1 66412U 25258A   25339.89924102  .00000588  00000+0  33228-3 0  9999", "line2": "2 66412  50.0056 290.7730 0013174 333.7456  26.2788 14.22483467  3683"}}, "geometry": {"type": "Point", "coordinates": [156.58296891580395, -42.31672871909292]}}, {"type": "Feature", "properties": {"norad_id": 66413, "name": "HULIANWANG DIGUI 13B", "group": "last-30-days", "lat": -12.876661347273215, "lon": 117.87504098264914, "alt_km": 828.521508636155, "timestamp": "2025-12-06T20:37:54.811874+00:00", "meta": {"OBJECT_NAME": "HULIANWANG DIGUI 13B", "OBJECT_ID": "2025-258B", "EPOCH": "2025-12-06T11:16:22.288224", "MEAN_MOTION": 14.21453011, "ECCENTRICITY": 0.00109256, "INCLINATION": 50.0012, "RA_OF_ASC_NODE": 288.4452, "ARG_OF_PERICENTER": 335.6563, "MEAN_ANOMALY": 24.3832, "EPHEMERIS_TYPE": 0, "CLASSIFICATION_TYPE": "U", "NORAD_CAT_ID": 66413, "ELEMENT_SET_NO": 999, "REV_AT_EPOCH": 376, "BSTAR": 0.00038060221, "MEAN_MOTION_DOT": 6.8e-06, "MEAN_MOTION_DDOT": 0}, "tle": {"line1": "1 66413U 25258B   25340.46970241  .00000680  00000+0  38060-3 0  9992", "line2": "2 66413  50.0012 288.4452 0010925 335.6563  24.3832 14.21453011  3761"}}, "geometry": {"type": "Point", "coordinates": [117.87504098264914, -12.876661347273215]}}, {"type": "Feature", "properties": {"norad_id": 66414, "name": "HULIANWANG DIGUI 13C", "group": "last-30-days", "lat": -27.49548947629989, "lon": 132.69403290476367, "alt_km": 825.2218196654021, "timestamp": "2025-12-06T20:37:54.811885+00:00", "meta": {"OBJECT_NAME": "HULIANWANG DIGUI 13C", "OBJECT_ID": "2025-258C", "EPOCH": "2025-12-05T09:53:35.287008", "MEAN_MOTION": 14.2244177, "ECCENTRICITY": 0.00137409, "INCLINATION": 50.0052, "RA_OF_ASC_NODE": 292.8676, "ARG_OF_PERICENTER": 331.0235, "MEAN_ANOMALY": 28.9914, "EPHEMERIS_TYPE": 0, "CLASSIFICATION_TYPE": "U", "NORAD_CAT_ID": 66414, "ELEMENT_SET_NO": 999, "REV_AT_EPOCH": 361, "BSTAR": 0.00035499636, "MEAN_MOTION_DOT": 6.38e-06, "MEAN_MOTION_DDOT": 0}, "tle": {"line1": "1 66414U 25258C   25339.41221397  .00000638  00000+0  35500-3 0  9996", "line2": "2 66414  50.0052 292.8676 0013740 331.0235  28.9914 14.22441770  3612"}}, "geometry": {"type": "Point", "coordinates": [132.69403290476367, -27.49548947629989]}}, {"type": "Feature", "properties": {"norad_id": 66415, "name": "HULIANWANG DIGUI 13D", "group": "last-30-days", "lat": -45.56292284912703, "lon": 165.6017959216023, "alt_km": 822.2482187511332, "timestamp": "2025-12-06T20:37:54.811895+00:00", "meta": {"OBJECT_NAME": "HULIANWANG DIGUI 13D", "OBJECT_ID": "2025-258D", "EPOCH": "2025-12-06T05:58:33.476448", "MEAN_MOTION": 14.22277403, "ECCENTRICITY": 0.00117964, "INCLINATION": 50.0081, "RA_OF_ASC_NODE": 289.2904, "ARG_OF_PERICENTER": 338.5635, "MEAN_ANOMALY": 21.4782, "EPHEMERIS_TYPE": 0, "CLASSIFICATION_TYPE": "U", "NORAD_CAT_ID": 66415, "ELEMENT_SET_NO": 999, "REV_AT_EPOCH": 373, "BSTAR": 0.00033182865, "MEAN_MOTION_DOT": 5.84e-06, "MEAN_MOTION_DDOT": 0}, "tle": {"line1": "1 66415U 25258D   25340.24899857  .00000584  00000+0  33183-3 0  9997", "line2": "2 66415  50.0081 289.2904 0011796 338.5635  21.4782 14.22277403  3738"}}, "geometry": {"type": "Point", "coordinates": [165.6017959216023, -45.56292284912703]}}, {"type": "Feature", "properties": {"norad_id": 66416, "name": "HULIANWANG DIGUI 13E", "group": "last-30-days", "lat": -32.76254329501665, "lon": 139.46505257859295, "alt_km": 825.395773868604, "timestamp": "2025-12-06T20:37:54.811908+00:00", "meta": {"OBJECT_NAME": "HULIANWANG DIGUI 13E", "OBJECT_ID": "2025-258E", "EPOCH": "2025-12-05T21:39:19.515744", "MEAN_MOTION": 14.22215324, "ECCENTRICITY": 0.00111953, "INCLINATION": 50.0052, "RA_OF_ASC_NODE": 290.7863, "ARG_OF_PERICENTER": 340.1554, "MEAN_ANOMALY": 19.8921, "EPHEMERIS_TYPE": 0, "CLASSIFICATION_TYPE": "U", "NORAD_CAT_ID": 66416, "ELEMENT_SET_NO": 999, "REV_AT_EPOCH": 368, "BSTAR": 0.00039075783, "MEAN_MOTION_DOT": 7.14e-06, "MEAN_MOTION_DDOT": 0}, "tle": {"line1": "1 66416U 25258E   25339.90230921  .00000714  00000+0  39076-3 0  9992", "line2": "2 66416  50.0052 290.7863 0011195 340.1554  19.8921 14.22215324  3684"}}, "geometry": {"type": "Point", "coordinates": [139.46505257859295, -32.76254329501665]}}, {"type": "Feature", "properties": {"norad_id": 66417, "name": "HULIANWANG DIGUI 13F", "group": "last-30-days", "lat": -36.96239002533489, "lon": 145.92484796946266, "alt_km": 825.3318364063052, "timestamp": "2025-12-06T20:37:54.811920+00:00", "meta": {"OBJECT_NAME": "HULIANWANG DIGUI 13F", "OBJECT_ID": "2025-258F", "EPOCH": "2025-12-06T14:29:09.906432", "MEAN_MOTION": 14.21933133, "ECCENTRICITY": 0.00102248, "INCLINATION": 50.0001, "RA_OF_ASC_NODE": 287.8136, "ARG_OF_PERICENTER": 341.4358, "MEAN_ANOMALY": 18.618, "EPHEMERIS_TYPE": 0, "CLASSIFICATION_TYPE": "U", "NORAD_CAT_ID": 66417, "ELEMENT_SET_NO": 999, "REV_AT_EPOCH": 378, "BSTAR": 0.00035322897, "MEAN_MOTION_DOT": 6.26e-06, "MEAN_MOTION_DDOT": 0}, "tle": {"line1": "1 66417U 25258F   25340.60358688  .00000626  00000+0  35323-3 0  9996", "line2": "2 66417  50.0001 287.8136 0010224 341.4358  18.6180 14.21933133  3786"}}, "geometry": {"type": "Point", "coordinates": [145.92484796946266, -36.96239002533489]}}, {"type": "Feature", "properties": {"norad_id": 66418, "name": "HULIANWANG DIGUI 13G", "group": "last-30-days", "lat": -48.43420323687891, "lon": 177.91425725080123, "alt_km": 819.1584519203143, "timestamp": "2025-12-06T20:37:54.811931+00:00", "meta": {"OBJECT_NAME": "HULIANWANG DIGUI 13G", "OBJECT_ID": "2025-258G", "EPOCH": "2025-12-05T21:30:39.941568", "MEAN_MOTION": 14.22784746, "ECCENTRICITY": 0.00116654, "INCLINATION": 50.0022, "RA_OF_ASC_NODE": 290.7431, "ARG_OF_PERICENTER": 336.1209, "MEAN_ANOMALY": 23.9161, "EPHEMERIS_TYPE": 0, "CLASSIFICATION_TYPE": "U", "NORAD_CAT_ID": 66418, "ELEMENT_SET_NO": 999, "REV_AT_EPOCH": 368, "BSTAR": 0.00031844208, "MEAN_MOTION_DOT": 5.6e-06, "MEAN_MOTION_DDOT": 0}, "tle": {"line1": "1 66418U 25258G   25339.89629562  .00000560  00000+0  31844-3 0  9999", "line2": "2 66418  50.0022 290.7431 0011665 336.1209  23.9161 14.22784746  3689"}}, "geometry": {"type": "Point", "coordinates": [177.91425725080123, -48.43420323687891]}}]}